{
  "type": "FeatureCollection",
  "features": [
    {
      "type": "Feature",
      "properties": {
        "norad_id": 15362,
        "name": "NOVA 3",
        "group": "nnss",
        "lat": 21.462049310229858,
        "lon": -99.42643638644059,
        "alt_km": 1195.929404447672,
        "timestamp": "2025-12-11T22:43:47.537315+00:00",
        "meta_object_name": "NOVA 3",
        "meta_object_id": "1984-110A",
        "meta_epoch": "2025-12-11T12:54:48.225024",
        "meta_mean_motion": 13.23044458,
        "meta_eccentricity": 0.00305747,
        "meta_inclination": 90.1224,
        "meta_ra_of_asc_node": 80.5206,
        "meta_arg_of_pericenter": 335.3518,
        "meta_mean_anomaly": 36.093,
        "meta_ephemeris_type": 0,
        "meta_classification_type": "U",
        "meta_norad_cat_id": 15362,
        "meta_element_set_no": 999,
        "meta_rev_at_epoch": 98683,
        "meta_bstar": 0.00026740059,
        "meta_mean_motion_dot": 1.21e-06,
        "meta_mean_motion_ddot": 0,
        "tle_line1": "1 15362U 84110A   25345.53805816  .00000121  00000+0  26740-3 0  9991",
        "tle_line2": "2 15362  90.1224  80.5206 0030574 335.3518  36.0930 13.23044458986834"
      },
      "geometry": {
        "type": "Point",
        "coordinates": [
          -99.42643638644059,
          21.462049310229858
        ]
      }
    },
    {
      "type": "Feature",
      "properties": {
        "norad_id": 15935,
        "name": "OSCAR 30",
        "group": "nnss",
        "lat": -23.93223986482417,
        "lon": -80.23926787950069,
        "alt_km": 1186.8364143543013,
        "timestamp": "2025-12-11T22:43:47.537326+00:00",
        "meta_object_name": "OSCAR 30",
        "meta_object_id": "1985-066A",
        "meta_epoch": "2025-12-11T14:35:49.847712",
        "meta_mean_motion": 13.36078198,
        "meta_eccentricity": 0.01694367,
        "meta_inclination": 90.165,
        "meta_ra_of_asc_node": 99.8285,
        "meta_arg_of_pericenter": 87.0662,
        "meta_mean_anomaly": 286.0986,
        "meta_ephemeris_type": 0,
        "meta_classification_type": "U",
        "meta_norad_cat_id": 15935,
        "meta_element_set_no": 999,
        "meta_rev_at_epoch": 96438,
        "meta_bstar": 0.00025652898,
        "meta_mean_motion_dot": 1.53e-06,
        "meta_mean_motion_ddot": 0,
        "tle_line1": "1 15935U 85066A   25345.60821583  .00000153  00000+0  25653-3 0  9992",
        "tle_line2": "2 15935  90.1650  99.8285 0169436  87.0662 286.0986 13.36078198964380"
      },
      "geometry": {
        "type": "Point",
        "coordinates": [
          -80.23926787950069,
          -23.93223986482417
        ]
      }
    },
    {
      "type": "Feature",
      "properties": {
        "norad_id": 15936,
        "name": "OSCAR 24",
        "group": "nnss",
        "lat": -82.34928068274064,
        "lon": 93.62479942674443,
        "alt_km": 1259.3574668861102,
        "timestamp": "2025-12-11T22:43:47.537336+00:00",
        "meta_object_name": "OSCAR 24",
        "meta_object_id": "1985-066B",
        "meta_epoch": "2025-12-11T14:13:05.832768",
        "meta_mean_motion": 13.35935594,
        "meta_eccentricity": 0.01705127,
        "meta_inclination": 90.179,
        "meta_ra_of_asc_node": 92.2851,
        "meta_arg_of_pericenter": 93.5447,
        "meta_mean_anomaly": 279.6587,
        "meta_ephemeris_type": 0,
        "meta_classification_type": "U",
        "meta_norad_cat_id": 15936,
        "meta_element_set_no": 999,
        "meta_rev_at_epoch": 96628,
        "meta_bstar": 0.00020506005,
        "meta_mean_motion_dot": 1.24e-06,
        "meta_mean_motion_ddot": 0,
        "tle_line1": "1 15936U 85066B   25345.59242862  .00000124  00000+0  20506-3 0  9998",
        "tle_line2": "2 15936  90.1790  92.2851 0170512  93.5447 279.6587 13.35935594966289"
      },
      "geometry": {
        "type": "Point",
        "coordinates": [
          93.62479942674443,
          -82.34928068274064
        ]
      }
    },
    {
      "type": "Feature",
      "properties": {
        "norad_id": 17070,
        "name": "POLAR BEAR",
        "group": "nnss",
        "lat": 1.3204448740615007,
        "lon": -176.18580032403523,
        "alt_km": 998.57938967065,
        "timestamp": "2025-12-11T22:43:47.537349+00:00",
        "meta_object_name": "POLAR BEAR",
        "meta_object_id": "1986-088A",
        "meta_epoch": "2025-12-11T12:31:24.828960",
        "meta_mean_motion": 13.75250405,
        "meta_eccentricity": 0.00409009,
        "meta_inclination": 89.6174,
        "meta_ra_of_asc_node": 183.8225,
        "meta_arg_of_pericenter": 122.7687,
        "meta_mean_anomaly": 294.923,
        "meta_ephemeris_type": 0,
        "meta_classification_type": "U",
        "meta_norad_cat_id": 17070,
        "meta_element_set_no": 999,
        "meta_rev_at_epoch": 95962,
        "meta_bstar": 0.0001455934,
        "meta_mean_motion_dot": 1.52e-06,
        "meta_mean_motion_ddot": 0,
        "tle_line1": "1 17070U 86088A   25345.52181515  .00000152  00000+0  14559-3 0  9996",
        "tle_line2": "2 17070  89.6174 183.8225 0040900 122.7687 294.9230 13.75250405959629"
      },
      "geometry": {
        "type": "Point",
        "coordinates": [
          -176.18580032403523,
          1.3204448740615007
        ]
      }
    },
    {
      "type": "Feature",
      "properties": {
        "norad_id": 18361,
        "name": "OSCAR 27",
        "group": "nnss",
        "lat": -13.341368960763347,
        "lon": 79.33148498657752,
        "alt_km": 1134.163677149868,
        "timestamp": "2025-12-11T22:43:47.537359+00:00",
        "meta_object_name": "OSCAR 27",
        "meta_object_id": "1987-080A",
        "meta_epoch": "2025-12-11T12:05:00.149280",
        "meta_mean_motion": 13.44906405,
        "meta_eccentricity": 0.01028125,
        "meta_inclination": 90.3742,
        "meta_ra_of_asc_node": 79.2261,
        "meta_arg_of_pericenter": 227.3736,
        "meta_mean_anomaly": 131.871,
        "meta_ephemeris_type": 0,
        "meta_classification_type": "U",
        "meta_norad_cat_id": 18361,
        "meta_element_set_no": 999,
        "meta_rev_at_epoch": 87540,
        "meta_bstar": 0.00026683303,
        "meta_mean_motion_dot": 1.69e-06,
        "meta_mean_motion_ddot": 0,
        "tle_line1": "1 18361U 87080A   25345.50347395  .00000169  00000+0  26683-3 0  9990",
        "tle_line2": "2 18361  90.3742  79.2261 0102812 227.3736 131.8710 13.44906405875408"
      },
      "geometry": {
        "type": "Point",
        "coordinates": [
          79.33148498657752,
          -13.341368960763347
        ]
      }
    },
    {
      "type": "Feature",
      "properties": {
        "norad_id": 18362,
        "name": "OSCAR 29",
        "group": "nnss",
        "lat": 0.2558520518518248,
        "lon": 79.69986909919247,
        "alt_km": 1122.6298659540807,
        "timestamp": "2025-12-11T22:43:47.537379+00:00",
        "meta_object_name": "OSCAR 29",
        "meta_object_id": "1987-080B",
        "meta_epoch": "2025-12-11T12:04:10.033824",
        "meta_mean_motion": 13.44448138,
        "meta_eccentricity": 0.01038593,
        "meta_inclination": 90.3753,
        "meta_ra_of_asc_node": 79.6849,
        "meta_arg_of_pericenter": 250.7539,
        "meta_mean_anomaly": 119.9162,
        "meta_ephemeris_type": 0,
        "meta_classification_type": "U",
        "meta_norad_cat_id": 18362,
        "meta_element_set_no": 999,
        "meta_rev_at_epoch": 87493,
        "meta_bstar": 0.00023965313,
        "meta_mean_motion_dot": 1.51e-06,
        "meta_mean_motion_ddot": 0,
        "tle_line1": "1 18362U 87080B   25345.50289391  .00000151  00000+0  23965-3 0  9993",
        "tle_line2": "2 18362  90.3753  79.6849 0103859 250.7539 119.9162 13.44448138874939"
      },
      "geometry": {
        "type": "Point",
        "coordinates": [
          79.69986909919247,
          0.2558520518518248
        ]
      }
    },
    {
      "type": "Feature",
      "properties": {
        "norad_id": 19070,
        "name": "OSCAR 23",
        "group": "nnss",
        "lat": -2.2148003525704874,
        "lon": -163.64421373923577,
        "alt_km": 1015.5939994138134,
        "timestamp": "2025-12-11T22:43:47.537402+00:00",
        "meta_object_name": "OSCAR 23",
        "meta_object_id": "1988-033A",
        "meta_epoch": "2025-12-11T13:33:16.801056",
        "meta_mean_motion": 13.27786973,
        "meta_eccentricity": 0.01894361,
        "meta_inclination": 90.3214,
        "meta_ra_of_asc_node": 16.3563,
        "meta_arg_of_pericenter": 183.1886,
        "meta_mean_anomaly": 332.568,
        "meta_ephemeris_type": 0,
        "meta_classification_type": "U",
        "meta_norad_cat_id": 19070,
        "meta_element_set_no": 999,
        "meta_rev_at_epoch": 82237,
        "meta_bstar": 0.0002195212,
        "meta_mean_motion_dot": 1.18e-06,
        "meta_mean_motion_ddot": 0,
        "tle_line1": "1 19070U 88033A   25345.56477779  .00000118  00000+0  21952-3 0  9991",
        "tle_line2": "2 19070  90.3214  16.3563 0189436 183.1886 332.5680 13.27786973822370"
      },
      "geometry": {
        "type": "Point",
        "coordinates": [
          -163.64421373923577,
          -2.2148003525704874
        ]
      }
    }
  ]
}